{"type": "FeatureCollection", "features": [ {"type": "Feature", "properties": {"norad_id": 37902, "name": "FENGYUN 1C DEB", "group": "fengyun-1c-debris", "lat": -77.25057397545197, "lon": -106.94352863939842, "alt_km": 838.7693247288662, "timestamp": "2025-12-16T19:34:24.557107+00:00", "meta": {"OBJECT_NAME": "FENGYUN 1C DEB", "OBJECT_ID": "1999-025ENB", "EPOCH": "2025-12-07T14:03:14.833440", "MEAN_MOTION": 13.52640367, "ECCENTRICITY": 0.03237878, "INCLINATION": 98.6837, "RA_OF_ASC_NODE": 202.4677, "ARG_OF_PERICENTER": 320.2654, "MEAN_ANOMALY": 37.5166, "EPHEMERIS_TYPE": 0, "CLASSIFICATION_TYPE": "U", "NORAD_CAT_ID": 37902, "ELEMENT_SET_NO": 999, "REV_AT_EPOCH": 62907, "BSTAR": 0.003775391, "MEAN_MOTION_DOT": 3.447e-05, "MEAN_MOTION_DDOT": 0}, "tle": {"line1": "1 37902U 99025ENB 25341.58558835  .00003447  00000+0  37754-2 0  9993", "line2": "2 37902  98.6837 202.4677 0323787 320.2654  37.5166 13.52640367629073"}}, "geometry": {"type": "Point", "coordinates": [-106.94352863939842, -77.25057397545197]}}, {"type": "Feature", "properties": {"norad_id": 37906, "name": "FENGYUN 1C DEB", "group": "fengyun-1c-debris", "lat": -34.40944700570862, "lon": 38.393741875526224, "alt_km": 893.6525476312399, "timestamp": "2025-12-16T19:34:24.557118+00:00", "meta": {"OBJECT_NAME": "FENGYUN 1C DEB", "OBJECT_ID": "1999-025ENF", "EPOCH": "2025-12-15T21:59:35.808288", "MEAN_MOTION": 13.80794155, "ECCENTRICITY": 0.01624292, "INCLINATION": 99.6005, "RA_OF_ASC_NODE": 30.8231, "ARG_OF_PERICENTER": 20.1587, "MEAN_ANOMALY": 159.1261, "EPHEMERIS_TYPE": 0, "CLASSIFICATION_TYPE": "U", "NORAD_CAT_ID": 37906, "ELEMENT_SET_NO": 999, "REV_AT_EPOCH": 59499, "BSTAR": 0.00067183482, "MEAN_MOTION_DOT": 7.35e-06, "MEAN_MOTION_DDOT": 0}, "tle": {"line1": "1 37906U 99025ENF 25349.91638667  .00000735  00000+0  67183-3 0  9991", "line2": "2 37906  99.6005  30.8231 0162429  20.1587 159.1261 13.80794155594994"}}, "geometry": {"type": "Point", "coordinates": [38.393741875526224, -34.40944700570862]}}, {"type": "Feature", "properties": {"norad_id": 37907, "name": "FENGYUN 1C DEB", "group": "fengyun-1c-debris", "lat": 3.3986394307286467, "lon": -75.532630395977, "alt_km": 769.7964311290807, "timestamp": "2025-12-16T19:34:24.557128+00:00", "meta": {"OBJECT_NAME": "FENGYUN 1C DEB", "OBJECT_ID": "1999-025ENG", "EPOCH": "2025-12-11T13:55:19.191936", "MEAN_MOTION": 14.23531669, "ECCENTRICITY": 0.00636609, "INCLINATION": 99.0808, "RA_OF_ASC_NODE": 98.5214, "ARG_OF_PERICENTER": 188.9882, "MEAN_ANOMALY": 171.016, "EPHEMERIS_TYPE": 0, "CLASSIFICATION_TYPE": "U", "NORAD_CAT_ID": 37907, "ELEMENT_SET_NO": 999, "REV_AT_EPOCH": 83256, "BSTAR": 0.0046875695, "MEAN_MOTION_DOT": 0.0001086, "MEAN_MOTION_DDOT": 0}, "tle": {"line1": "1 37907U 99025ENG 25345.58008324  .00010860  00000+0  46876-2 0  9997", "line2": "2 37907  99.0808  98.5214 0063660 188.9882 171.0160 14.23531669832566"}}, "geometry": {"type": "Point", "coordinates": [-75.532630395977, 3.3986394307286467]}}, {"type": "Feature", "properties": {"norad_id": 37908, "name": "FENGYUN 1C DEB", "group": "fengyun-1c-debris", "lat": 35.80334822836844, "lon": -150.3599923372763, "alt_km": 713.9722669127214, "timestamp": "2025-12-16T19:34:24.557138+00:00", "meta": {"OBJECT_NAME": "FENGYUN 1C DEB", "OBJECT_ID": "1999-025ENH", "EPOCH": "2025-12-06T19:52:32.356992", "MEAN_MOTION": 14.36573191, "ECCENTRICITY": 0.00744593, "INCLINATION": 99.1512, "RA_OF_ASC_NODE": 12.3562, "ARG_OF_PERICENTER": 174.8209, "MEAN_ANOMALY": 185.3763, "EPHEMERIS_TYPE": 0, "CLASSIFICATION_TYPE": "U", "NORAD_CAT_ID": 37908, "ELEMENT_SET_NO": 999, "REV_AT_EPOCH": 63976, "BSTAR": 0.0009644739, "MEAN_MOTION_DOT": 2.877e-05, "MEAN_MOTION_DDOT": 0}, "tle": {"line1": "1 37908U 99025ENH 25340.82815228  .00002877  00000+0  96447-3 0  9998", "line2": "2 37908  99.1512  12.3562 0074459 174.8209 185.3763 14.36573191639769"}}, "geometry": {"type": "Point", "coordinates": [-150.3599923372763, 35.80334822836844]}}, {"type": "Feature", "properties": {"norad_id": 37912, "name": "FENGYUN 1C DEB", "group": "fengyun-1c-debris", "lat": 55.426280464451864, "lon": 153.18727359767067, "alt_km": 830.593080335133, "timestamp": "2025-12-16T19:34:24.557148+00:00", "meta": {"OBJECT_NAME": "FENGYUN 1C DEB", "OBJECT_ID": "1999-025ENM", "EPOCH": "2025-12-15T08:58:30.385920", "MEAN_MOTION": 14.1151891, "ECCENTRICITY": 0.00923917, "INCLINATION": 99.2243, "RA_OF_ASC_NODE": 318.0678, "ARG_OF_PERICENTER": 52.7477, "MEAN_ANOMALY": 308.2076, "EPHEMERIS_TYPE": 0, "CLASSIFICATION_TYPE": "U", "NORAD_CAT_ID": 37912, "ELEMENT_SET_NO": 999, "REV_AT_EPOCH": 77325, "BSTAR": 0.0018008356, "MEAN_MOTION_DOT": 3.356e-05, "MEAN_MOTION_DDOT": 0}, "tle": {"line1": "1 37912U 99025ENM 25349.37396280  .00003356  00000+0  18008-2 0  9993", "line2": "2 37912  99.2243 318.0678 0092391  52.7477 308.2076 14.11518910773253"}}, "geometry": {"type": "Point", "coordinates": [153.18727359767067, 55.426280464451864]}}, {"type": "Feature", "properties": {"norad_id": 37918, "name": "FENGYUN 1C DEB", "group": "fengyun-1c-debris", "lat": 43.259761266344036, "lon": 129.060887776942, "alt_km": 801.450574777502, "timestamp": "2025-12-16T19:34:24.557159+00:00", "meta": {"OBJECT_NAME": "FENGYUN 1C DEB", "OBJECT_ID": "1999-025ENT", "EPOCH": "2025-12-15T07:46:48.634464", "MEAN_MOTION": 14.3439691, "ECCENTRICITY": 0.00549502, "INCLINATION": 99.0278, "RA_OF_ASC_NODE": 298.8996, "ARG_OF_PERICENTER": 276.0412, "MEAN_ANOMALY": 83.4512, "EPHEMERIS_TYPE": 0, "CLASSIFICATION_TYPE": "U", "NORAD_CAT_ID": 37918, "ELEMENT_SET_NO": 999, "REV_AT_EPOCH": 3579, "BSTAR": 0.00056898972, "MEAN_MOTION_DOT": 1.58e-05, "MEAN_MOTION_DDOT": 0}, "tle": {"line1": "1 37918U 99025ENT 25349.32417401  .00001580  00000+0  56899-3 0  9991", "line2": "2 37918  99.0278 298.8996 0054950 276.0412  83.4512 14.34396910 35798"}}, "geometry": {"type": "Point", "coordinates": [129.060887776942, 43.259761266344036]}}, {"type": "Feature", "properties": {"norad_id": 37919, "name": "FENGYUN 1C DEB", "group": "fengyun-1c-debris", "lat": -18.15334291737217, "lon": 105.9074827665303, "alt_km": 842.1200168356054, "timestamp": "2025-12-16T19:34:24.557169+00:00", "meta": {"OBJECT_NAME": "FENGYUN 1C DEB", "OBJECT_ID": "1999-025ENU", "EPOCH": "2025-12-12T06:55:51.957984", "MEAN_MOTION": 14.2676163, "ECCENTRICITY": 0.00496798, "INCLINATION": 99.0576, "RA_OF_ASC_NODE": 284.2227, "ARG_OF_PERICENTER": 17.6806, "MEAN_ANOMALY": 342.6088, "EPHEMERIS_TYPE": 0, "CLASSIFICATION_TYPE": "U", "NORAD_CAT_ID": 37919, "ELEMENT_SET_NO": 999, "REV_AT_EPOCH": 64902, "BSTAR": 0.00082874062, "MEAN_MOTION_DOT": 1.986e-05, "MEAN_MOTION_DDOT": 0}, "tle": {"line1": "1 37919U 99025ENU 25346.28879581  .00001986  00000+0  82874-3 0  9997", "line2": "2 37919  99.0576 284.2227 0049679  17.6806 342.6088 14.26761630649025"}}, "geometry": {"type": "Point", "coordinates": [105.9074827665303, -18.15334291737217]}}, {"type": "Feature", "properties": {"norad_id": 37921, "name": "FENGYUN 1C DEB", "group": "fengyun-1c-debris", "lat": 27.367400097176006, "lon": 27.086954824361804, "alt_km": 878.0931429206285, "timestamp": "2025-12-16T19:34:24.557179+00:00", "meta": {"OBJECT_NAME": "FENGYUN 1C DEB", "OBJECT_ID": "1999-025ENW", "EPOCH": "2025-12-15T09:01:05.069568", "MEAN_MOTION": 13.95156429, "ECCENTRICITY": 0.00843191, "INCLINATION": 99.0218, "RA_OF_ASC_NODE": 30.3959, "ARG_OF_PERICENTER": 91.5684, "MEAN_ANOMALY": 269.5138, "EPHEMERIS_TYPE": 0, "CLASSIFICATION_TYPE": "U", "NORAD_CAT_ID": 37921, "ELEMENT_SET_NO": 999, "REV_AT_EPOCH": 63184, "BSTAR": 6.6280037e-05, "MEAN_MOTION_DOT": 4.9e-07, "MEAN_MOTION_DDOT": 0}, "tle": {"line1": "1 37921U 99025ENW 25349.37575312  .00000049  00000+0  66280-4 0  9991", "line2": "2 37921  99.0218  30.3959 0084319  91.5684 269.5138 13.95156429631841"}}, "geometry": {"type": "Point", "coordinates": [27.086954824361804, 27.367400097176006]}}, {"type": "Feature", "properties": {"norad_id": 37925, "name": "FENGYUN 1C DEB", "group": "fengyun-1c-debris", "lat": -29.551508908374124, "lon": -134.28934177628972, "alt_km": 594.3534283362369, "timestamp": "2025-12-16T19:34:24.557189+00:00", "meta": {"OBJECT_NAME": "FENGYUN 1C DEB", "OBJECT_ID": "1999-025EPA", "EPOCH": "2025-12-14T09:18:34.175520", "MEAN_MOTION": 14.80339086, "ECCENTRICITY": 0.00565241, "INCLINATION": 99.0864, "RA_OF_ASC_NODE": 217.7592, "ARG_OF_PERICENTER": 337.9668, "MEAN_ANOMALY": 21.9111, "EPHEMERIS_TYPE": 0, "CLASSIFICATION_TYPE": "U", "NORAD_CAT_ID": 37925, "ELEMENT_SET_NO": 999, "REV_AT_EPOCH": 65707, "BSTAR": 0.001911367, "MEAN_MOTION_DOT": 0.00014939, "MEAN_MOTION_DDOT": 0}, "tle": {"line1": "1 37925U 99025EPA 25348.38789555  .00014939  00000+0  19114-2 0  9996", "line2": "2 37925  99.0864 217.7592 0056524 337.9668  21.9111 14.80339086657073"}}, "geometry": {"type": "Point", "coordinates": [-134.28934177628972, -29.551508908374124]}}, {"type": "Feature", "properties": {"norad_id": 37926, "name": "FENGYUN 1C DEB", "group": "fengyun-1c-debris", "lat": 72.26397719051593, "lon": 25.262173951461648, "alt_km": 831.6006594787195, "timestamp": "2025-12-16T19:34:24.557199+00:00", "meta": {"OBJECT_NAME": "FENGYUN 1C DEB", "OBJECT_ID": "1999-025EPB", "EPOCH": "2025-12-15T03:02:36.409056", "MEAN_MOTION": 14.24238044, "ECCENTRICITY": 0.00542643, "INCLINATION": 98.7248, "RA_OF_ASC_NODE": 52.2799, "ARG_OF_PERICENTER": 214.5758, "MEAN_ANOMALY": 206.5973, "EPHEMERIS_TYPE": 0, "CLASSIFICATION_TYPE": "U", "NORAD_CAT_ID": 37926, "ELEMENT_SET_NO": 999, "REV_AT_EPOCH": 74304, "BSTAR": 0.0011799371, "MEAN_MOTION_DOT": 2.72e-05, "MEAN_MOTION_DDOT": 0}, "tle": {"line1": "1 37926U 99025EPB 25349.12681029  .00002720  00000+0  11799-2 0  9993", "line2": "2 37926  98.7248  52.2799 0054264 214.5758 206.5973 14.24238044743046"}}, "geometry": {"type": "Point", "coordinates": [25.262173951461648, 72.26397719051593]}}]}